[
    {
        "Altitude(m)": 702828.2987358782,
        "Argument of Periapsis(deg)": 0.006834072711976239,
        "Eccentricity": 0.0,
        "Inclination(deg)": 45.0,
        "Latitude(deg)": 6.636623169191649,
        "Longitude(deg)": 167.9024945054096,
        "Mean Anomaly(deg)": 170.5563299884885,
        "RAAN(deg)": 94.99354883512508,
        "Satellite Name": "Constellation 1 428",
        "Satellite Number": 428,
        "Semi-Major Axis(m)": 7083131.272910544,
        "Time(s)": 114
    },
    {
        "Altitude(m)": 702830.7195516729,
        "Argument of Periapsis(deg)": 0.006894020718221645,
        "Eccentricity": 0.0,
        "Inclination(deg)": 45.0,
        "Latitude(deg)": 6.593692581897712,
        "Longitude(deg)": 167.9418246184992,
        "Mean Anomaly(deg)": 170.61703112873838,
        "RAAN(deg)": 94.99349224595952,
        "Satellite Name": "Constellation 1 428",
        "Satellite Number": 428,
        "Semi-Major Axis(m)": 7083131.272910544,
        "Time(s)": 115
    },
    {
        "Altitude(m)": 702833.1608965577,
        "Argument of Periapsis(deg)": 0.006953968724467052,
        "Eccentricity": 0.0,
        "Inclination(deg)": 45.0,
        "Latitude(deg)": 6.550758192617569,
        "Longitude(deg)": 167.98114721021958,
        "Mean Anomaly(deg)": 170.6777322689883,
        "RAAN(deg)": 94.99343565679393,
        "Satellite Name": "Constellation 1 428",
        "Satellite Number": 428,
        "Semi-Major Axis(m)": 7083131.272910544,
        "Time(s)": 116
    },
    {
        "Altitude(m)": 702835.622778241,
        "Argument of Periapsis(deg)": 0.007013916730712457,
        "Eccentricity": 0.0,
        "Inclination(deg)": 45.0,
        "Latitude(deg)": 6.507820027398633,
        "Longitude(deg)": 168.02046233016588,
        "Mean Anomaly(deg)": 170.7384334092382,
        "RAAN(deg)": 94.99337906762838,
        "Satellite Name": "Constellation 1 428",
        "Satellite Number": 428,
        "Semi-Major Axis(m)": 7083131.272910544,
        "Time(s)": 117
    },
    {
        "Altitude(m)": 702838.1052043518,
        "Argument of Periapsis(deg)": 0.007073864736957864,
        "Eccentricity": 0.0,
        "Inclination(deg)": 45.0,
        "Latitude(deg)": 6.464878112273944,
        "Longitude(deg)": 168.05977002791687,
        "Mean Anomaly(deg)": 170.7991345494881,
        "RAAN(deg)": 94.99332247846282,
        "Satellite Name": "Constellation 1 428",
        "Satellite Number": 428,
        "Semi-Major Axis(m)": 7083131.272910544,
        "Time(s)": 118
    },
    {
        "Altitude(m)": 702840.6081824211,
        "Argument of Periapsis(deg)": 0.0071338127432032696,
        "Eccentricity": 0.0,
        "Inclination(deg)": 45.0,
        "Latitude(deg)": 6.421932473262455,
        "Longitude(deg)": 168.09907018493814,
        "Mean Anomaly(deg)": 170.85983568973805,
        "RAAN(deg)": 94.99326588929723,
        "Satellite Name": "Constellation 1 428",
        "Satellite Number": 428,
        "Semi-Major Axis(m)": 7083131.272910544,
        "Time(s)": 119
    },
    {
        "Altitude(m)": 702843.1317198914,
        "Argument of Periapsis(deg)": 0.007193760749448674,
        "Eccentricity": 0.0,
        "Inclination(deg)": 45.0,
        "Latitude(deg)": 6.378983136368416,
        "Longitude(deg)": 168.1383631869699,
        "Mean Anomaly(deg)": 170.92053682998787,
        "RAAN(deg)": 94.99320930013167,
        "Satellite Name": "Constellation 1 428",
        "Satellite Number": 428,
        "Semi-Major Axis(m)": 7083131.272910544,
        "Time(s)": 120
    },
    {
        "Altitude(m)": 702845.6758241126,
        "Argument of Periapsis(deg)": 0.007253708755694079,
        "Eccentricity": 0.0,
        "Inclination(deg)": 45.0,
        "Latitude(deg)": 6.3360301275824185,
        "Longitude(deg)": 168.1776489154459,
        "Mean Anomaly(deg)": 170.98123797023783,
        "RAAN(deg)": 94.99315271096609,
        "Satellite Name": "Constellation 1 428",
        "Satellite Number": 428,
        "Semi-Major Axis(m)": 7083131.272910544,
        "Time(s)": 121
    },
    {
        "Altitude(m)": 702848.2405023458,
        "Argument of Periapsis(deg)": 0.0073136567619394854,
        "Eccentricity": 0.0,
        "Inclination(deg)": 45.0,
        "Latitude(deg)": 6.2930734728814,
        "Longitude(deg)": 168.2169274198802,
        "Mean Anomaly(deg)": 171.0419391104877,
        "RAAN(deg)": 94.99309612180052,
        "Satellite Name": "Constellation 1 428",
        "Satellite Number": 428,
        "Semi-Major Axis(m)": 7083131.272910544,
        "Time(s)": 122
    },
    {
        "Altitude(m)": 702850.825761764,
        "Argument of Periapsis(deg)": 0.0073736047681848904,
        "Eccentricity": 0.0,
        "Inclination(deg)": 45.0,
        "Latitude(deg)": 6.250113198227818,
        "Longitude(deg)": 168.25619874977176,
        "Mean Anomaly(deg)": 171.10264025073764,
        "RAAN(deg)": 94.99303953263497,
        "Satellite Name": "Constellation 1 428",
        "Satellite Number": 428,
        "Semi-Major Axis(m)": 7083131.272910544,
        "Time(s)": 123
    },
    {
        "Altitude(m)": 702853.4316094513,
        "Argument of Periapsis(deg)": 0.007433552774430298,
        "Eccentricity": 0.0,
        "Inclination(deg)": 45.0,
        "Latitude(deg)": 6.207149329570967,
        "Longitude(deg)": 168.29546295460307,
        "Mean Anomaly(deg)": 171.16334139098745,
        "RAAN(deg)": 94.99298294346939,
        "Satellite Name": "Constellation 1 428",
        "Satellite Number": 428,
        "Semi-Major Axis(m)": 7083131.272910544,
        "Time(s)": 124
    },
    {
        "Altitude(m)": 702856.0580523951,
        "Argument of Periapsis(deg)": 0.007493500780675703,
        "Eccentricity": 0.0,
        "Inclination(deg)": 45.0,
        "Latitude(deg)": 6.164181892845848,
        "Longitude(deg)": 168.33472008384172,
        "Mean Anomaly(deg)": 171.2240425312374,
        "RAAN(deg)": 94.99292635430382,
        "Satellite Name": "Constellation 1 428",
        "Satellite Number": 428,
        "Semi-Major Axis(m)": 7083131.272910544,
        "Time(s)": 125
    },
    {
        "Altitude(m)": 702858.705097495,
        "Argument of Periapsis(deg)": 0.007553448786921108,
        "Eccentricity": 0.0,
        "Inclination(deg)": 45.0,
        "Latitude(deg)": 6.121210913974696,
        "Longitude(deg)": 168.3739700188421,
        "Mean Anomaly(deg)": 171.28474367148726,
        "RAAN(deg)": 94.99286976513824,
        "Satellite Name": "Constellation 1 428",
        "Satellite Number": 428,
        "Semi-Major Axis(m)": 7083131.272910544,
        "Time(s)": 126
    },
    {
        "Altitude(m)": 702861.3727515682,
        "Argument of Periapsis(deg)": 0.007613396793166514,
        "Eccentricity": 0.0,
        "Inclination(deg)": 45.0,
        "Latitude(deg)": 6.0782364188650115,
        "Longitude(deg)": 168.41321314523478,
        "Mean Anomaly(deg)": 171.3454448117372,
        "RAAN(deg)": 94.99281317597269,
        "Satellite Name": "Constellation 1 428",
        "Satellite Number": 428,
        "Semi-Major Axis(m)": 7083131.272910544,
        "Time(s)": 127
    },
    {
        "Altitude(m)": 702864.0610213196,
        "Argument of Periapsis(deg)": 0.007673344799411918,
        "Eccentricity": 0.0,
        "Inclination(deg)": 45.0,
        "Latitude(deg)": 6.0352584334121,
        "Longitude(deg)": 168.45244934434345,
        "Mean Anomaly(deg)": 171.4061459519871,
        "RAAN(deg)": 94.99275658680712,
        "Satellite Name": "Constellation 1 428",
        "Satellite Number": 428,
        "Semi-Major Axis(m)": 7083131.272910544,
        "Time(s)": 128
    },
    {
        "Altitude(m)": 702866.7699133924,
        "Argument of Periapsis(deg)": 0.007733292805657325,
        "Eccentricity": 0.0,
        "Inclination(deg)": 45.0,
        "Latitude(deg)": 5.992276983497501,
        "Longitude(deg)": 168.49167866557372,
        "Mean Anomaly(deg)": 171.466847092237,
        "RAAN(deg)": 94.99269999764154,
        "Satellite Name": "Constellation 1 428",
        "Satellite Number": 428,
        "Semi-Major Axis(m)": 7083131.272910544,
        "Time(s)": 129
    },
    {
        "Altitude(m)": 702869.4994343203,
        "Argument of Periapsis(deg)": 0.00779324081190273,
        "Eccentricity": 0.0,
        "Inclination(deg)": 45.0,
        "Latitude(deg)": 5.949292094989508,
        "Longitude(deg)": 168.5309011583163,
        "Mean Anomaly(deg)": 171.5275482324869,
        "RAAN(deg)": 94.99264340847597,
        "Satellite Name": "Constellation 1 428",
        "Satellite Number": 428,
        "Semi-Major Axis(m)": 7083131.272910544,
        "Time(s)": 130
    },
    {
        "Altitude(m)": 702872.2495905504,
        "Argument of Periapsis(deg)": 0.007853188818148135,
        "Eccentricity": 0.0,
        "Inclination(deg)": 45.0,
        "Latitude(deg)": 5.906303793743474,
        "Longitude(deg)": 168.5701168719465,
        "Mean Anomaly(deg)": 171.58824937273675,
        "RAAN(deg)": 94.99258681931042,
        "Satellite Name": "Constellation 1 428",
        "Satellite Number": 428,
        "Semi-Major Axis(m)": 7083131.272910544,
        "Time(s)": 131
    },
    {
        "Altitude(m)": 702875.0203884393,
        "Argument of Periapsis(deg)": 0.007913136824393542,
        "Eccentricity": 0.0,
        "Inclination(deg)": 45.0,
        "Latitude(deg)": 5.8633121056015085,
        "Longitude(deg)": 168.60932585582498,
        "Mean Anomaly(deg)": 171.64895051298674,
        "RAAN(deg)": 94.99253023014484,
        "Satellite Name": "Constellation 1 428",
        "Satellite Number": 428,
        "Semi-Major Axis(m)": 7083131.272910544,
        "Time(s)": 132
    }
]